CCSDS_OMM_VERS = 2.0
CREATION_DATE  = 
ORIGINATOR     = 

OBJECT_NAME    = COSMOS 1933
OBJECT_ID      = 1988-020A
CENTER_NAME    = EARTH
REF_FRAME      = TEME
TIME_SYSTEM    = UTC
MEAN_ELEMENT_THEORY = SGP/SGP4

EPOCH          = 2025-12-12T00:39:24.123456
MEAN_MOTION    = 15.17098272
ECCENTRICITY   = .00056801
INCLINATION    = 82.5136
RA_OF_ASC_NODE = 337.5828
ARG_OF_PERICENTER = 128.8164
MEAN_ANOMALY   = 231.3577

EPHEMERIS_TYPE = 0
CLASSIFICATION_TYPE = U
NORAD_CAT_ID   = 18958
ELEMENT_SET_NO = 999
REV_AT_EPOCH   = 3693
BSTAR          = .30494978E-3
MEAN_MOTION_DOT = .6073E-4
MEAN_MOTION_DDOT = 0

CCSDS_OMM_VERS = 2.0
CREATION_DATE  = 
ORIGINATOR     = 

OBJECT_NAME    = SL-3 R/B
OBJECT_ID      = 1988-032B
CENTER_NAME    = EARTH
REF_FRAME      = TEME
TIME_SYSTEM    = UTC
MEAN_ELEMENT_THEORY = SGP/SGP4

EPOCH          = 2025-12-11T22:32:19.929984
MEAN_MOTION    = 15.18729669
ECCENTRICITY   = .00266552
INCLINATION    = 97.5083
RA_OF_ASC_NODE = 324.6651
ARG_OF_PERICENTER = 175.6369
MEAN_ANOMALY   = 184.5102

EPHEMERIS_TYPE = 0
CLASSIFICATION_TYPE = U
NORAD_CAT_ID   = 19046
ELEMENT_SET_NO = 999
REV_AT_EPOCH   = 3878
BSTAR          = .37187417E-3
MEAN_MOTION_DOT = .7725E-4
MEAN_MOTION_DDOT = 0

CCSDS_OMM_VERS = 2.0
CREATION_DATE  = 
ORIGINATOR     = 

OBJECT_NAME    = SL-16 R/B
OBJECT_ID      = 1988-039B
CENTER_NAME    = EARTH
REF_FRAME      = TEME
TIME_SYSTEM    = UTC
MEAN_ELEMENT_THEORY = SGP/SGP4

EPOCH          = 2025-12-11T23:19:30.882144
MEAN_MOTION    = 14.19596836
ECCENTRICITY   = .00197196
INCLINATION    = 71.0151
RA_OF_ASC_NODE = 254.0219
ARG_OF_PERICENTER = 117.6269
MEAN_ANOMALY   = 242.6861

EPHEMERIS_TYPE = 0
CLASSIFICATION_TYPE = U
NORAD_CAT_ID   = 19120
ELEMENT_SET_NO = 999
REV_AT_EPOCH   = 94593
BSTAR          = .2439169E-5
MEAN_MOTION_DOT = -.43E-6
MEAN_MOTION_DDOT = 0

CCSDS_OMM_VERS = 2.0
CREATION_DATE  = 
ORIGINATOR     = 

OBJECT_NAME    = COSMOS 1953
OBJECT_ID      = 1988-050A
CENTER_NAME    = EARTH
REF_FRAME      = TEME
TIME_SYSTEM    = UTC
MEAN_ELEMENT_THEORY = SGP/SGP4

EPOCH          = 2025-12-11T15:44:25.403712
MEAN_MOTION    = 15.26918750
ECCENTRICITY   = .00137844
INCLINATION    = 82.5088
RA_OF_ASC_NODE = 246.6691
ARG_OF_PERICENTER = 74.8356
MEAN_ANOMALY   = 285.4406

EPHEMERIS_TYPE = 0
CLASSIFICATION_TYPE = U
NORAD_CAT_ID   = 19210
ELEMENT_SET_NO = 999
REV_AT_EPOCH   = 2434
BSTAR          = .33162862E-3
MEAN_MOTION_DOT = .8821E-4
MEAN_MOTION_DDOT = 0

CCSDS_OMM_VERS = 2.0
CREATION_DATE  = 
ORIGINATOR     = 

OBJECT_NAME    = SL-8 R/B
OBJECT_ID      = 1988-053B
CENTER_NAME    = EARTH
REF_FRAME      = TEME
TIME_SYSTEM    = UTC
MEAN_ELEMENT_THEORY = SGP/SGP4

EPOCH          = 2025-12-11T23:40:29.701632
MEAN_MOTION    = 14.38858510
ECCENTRICITY   = .00190117
INCLINATION    = 74.0479
RA_OF_ASC_NODE = 274.1077
ARG_OF_PERICENTER = 118.5530
MEAN_ANOMALY   = 315.4112

EPHEMERIS_TYPE = 0
CLASSIFICATION_TYPE = U
NORAD_CAT_ID   = 19257
ELEMENT_SET_NO = 999
REV_AT_EPOCH   = 96398
BSTAR          = .14955684E-3
MEAN_MOTION_DOT = .435E-5
MEAN_MOTION_DDOT = 0

CCSDS_OMM_VERS = 2.0
CREATION_DATE  = 
ORIGINATOR     = 

OBJECT_NAME    = COSMOS 1975
OBJECT_ID      = 1988-093A
CENTER_NAME    = EARTH
REF_FRAME      = TEME
TIME_SYSTEM    = UTC
MEAN_ELEMENT_THEORY = SGP/SGP4

EPOCH          = 2025-12-11T23:51:44.224704
MEAN_MOTION    = 15.26453000
ECCENTRICITY   = .00128101
INCLINATION    = 82.5204
RA_OF_ASC_NODE = 205.5753
ARG_OF_PERICENTER = 114.7238
MEAN_ANOMALY   = 245.5336

EPHEMERIS_TYPE = 0
CLASSIFICATION_TYPE = U
NORAD_CAT_ID   = 19573
ELEMENT_SET_NO = 999
REV_AT_EPOCH   = 602
BSTAR          = .39540658E-3
MEAN_MOTION_DOT = .10363E-3
MEAN_MOTION_DDOT = 0

CCSDS_OMM_VERS = 2.0
CREATION_DATE  = 
ORIGINATOR     = 

OBJECT_NAME    = SL-14 R/B
OBJECT_ID      = 1988-093B
CENTER_NAME    = EARTH
REF_FRAME      = TEME
TIME_SYSTEM    = UTC
MEAN_ELEMENT_THEORY = SGP/SGP4

EPOCH          = 2025-12-11T21:50:03.637248
MEAN_MOTION    = 14.85547750
ECCENTRICITY   = .0020032
INCLINATION    = 82.5303
RA_OF_ASC_NODE = 124.4460
ARG_OF_PERICENTER = 332.2810
MEAN_ANOMALY   = 143.8051

EPHEMERIS_TYPE = 0
CLASSIFICATION_TYPE = U
NORAD_CAT_ID   = 19574
ELEMENT_SET_NO = 999
REV_AT_EPOCH   = 98800
BSTAR          = .96678238E-4
MEAN_MOTION_DOT = .862E-5
MEAN_MOTION_DDOT = 0

CCSDS_OMM_VERS = 2.0
CREATION_DATE  = 
ORIGINATOR     = 

OBJECT_NAME    = SL-16 R/B
OBJECT_ID      = 1988-102B
CENTER_NAME    = EARTH
REF_FRAME      = TEME
TIME_SYSTEM    = UTC
MEAN_ELEMENT_THEORY = SGP/SGP4

EPOCH          = 2025-12-11T23:08:09.244896
MEAN_MOTION    = 14.16136250
ECCENTRICITY   = .00130068
INCLINATION    = 70.9996
RA_OF_ASC_NODE = 336.0754
ARG_OF_PERICENTER = 153.2468
MEAN_ANOMALY   = 206.9329

EPHEMERIS_TYPE = 0
CLASSIFICATION_TYPE = U
NORAD_CAT_ID   = 19650
ELEMENT_SET_NO = 999
REV_AT_EPOCH   = 91447
BSTAR          = .10420695E-4
MEAN_MOTION_DOT = -.27E-6
MEAN_MOTION_DDOT = 0

CCSDS_OMM_VERS = 2.0
CREATION_DATE  = 
ORIGINATOR     = 

OBJECT_NAME    = INTERCOSMOS 24
OBJECT_ID      = 1989-080A
CENTER_NAME    = EARTH
REF_FRAME      = TEME
TIME_SYSTEM    = UTC
MEAN_ELEMENT_THEORY = SGP/SGP4

EPOCH          = 2025-12-11T22:47:42.692352
MEAN_MOTION    = 12.59437986
ECCENTRICITY   = .1188841
INCLINATION    = 82.6043
RA_OF_ASC_NODE = 161.4665
ARG_OF_PERICENTER = 136.3518
MEAN_ANOMALY   = 233.8091

EPHEMERIS_TYPE = 0
CLASSIFICATION_TYPE = U
NORAD_CAT_ID   = 20261
ELEMENT_SET_NO = 999
REV_AT_EPOCH   = 65575
BSTAR          = .42877512E-3
MEAN_MOTION_DOT = .1479E-4
MEAN_MOTION_DDOT = 0

CCSDS_OMM_VERS = 2.0
CREATION_DATE  = 
ORIGINATOR     = 

OBJECT_NAME    = SL-14 R/B
OBJECT_ID      = 1989-080C
CENTER_NAME    = EARTH
REF_FRAME      = TEME
TIME_SYSTEM    = UTC
MEAN_ELEMENT_THEORY = SGP/SGP4

EPOCH          = 2025-12-11T09:13:17.796864
MEAN_MOTION    = 12.50412279
ECCENTRICITY   = .12306808
INCLINATION    = 82.5930
RA_OF_ASC_NODE = 229.8909
ARG_OF_PERICENTER = 26.6852
MEAN_ANOMALY   = 339.2496

EPHEMERIS_TYPE = 0
CLASSIFICATION_TYPE = U
NORAD_CAT_ID   = 20262
ELEMENT_SET_NO = 999
REV_AT_EPOCH   = 64911
BSTAR          = .18648628E-3
MEAN_MOTION_DOT = .637E-5
MEAN_MOTION_DDOT = 0

CCSDS_OMM_VERS = 2.0
CREATION_DATE  = 
ORIGINATOR     = 

OBJECT_NAME    = DELTA 1 R/B
OBJECT_ID      = 1989-089B
CENTER_NAME    = EARTH
REF_FRAME      = TEME
TIME_SYSTEM    = UTC
MEAN_ELEMENT_THEORY = SGP/SGP4

EPOCH          = 2025-12-12T00:27:16.088544
MEAN_MOTION    = 14.50571460
ECCENTRICITY   = .00701756
INCLINATION    = 97.0752
RA_OF_ASC_NODE = 202.3708
ARG_OF_PERICENTER = 40.5453
MEAN_ANOMALY   = 320.0942

EPHEMERIS_TYPE = 0
CLASSIFICATION_TYPE = U
NORAD_CAT_ID   = 20323
ELEMENT_SET_NO = 999
REV_AT_EPOCH   = 88302
BSTAR          = .14817397E-3
MEAN_MOTION_DOT = .564E-5
MEAN_MOTION_DDOT = 0

CCSDS_OMM_VERS = 2.0
CREATION_DATE  = 
ORIGINATOR     = 

OBJECT_NAME    = ARIANE 40 R/B
OBJECT_ID      = 1990-005H
CENTER_NAME    = EARTH
REF_FRAME      = TEME
TIME_SYSTEM    = UTC
MEAN_ELEMENT_THEORY = SGP/SGP4

EPOCH          = 2025-12-11T15:03:19.881216
MEAN_MOTION    = 14.39797503
ECCENTRICITY   = .0011245
INCLINATION    = 98.3244
RA_OF_ASC_NODE = 43.8365
ARG_OF_PERICENTER = 108.8038
MEAN_ANOMALY   = 251.4371

EPHEMERIS_TYPE = 0
CLASSIFICATION_TYPE = U
NORAD_CAT_ID   = 20443
ELEMENT_SET_NO = 999
REV_AT_EPOCH   = 88013
BSTAR          = .17574344E-3
MEAN_MOTION_DOT = .509E-5
MEAN_MOTION_DDOT = 0

