COSMOS 1933             
1 18958U 88020A   25346.02736254  .00006073  00000+0  30495-3 0  9997
2 18958  82.5136 337.5828 0005680 128.8164 231.3577 15.17098272 36934
SL-3 R/B                
1 19046U 88032B   25345.93911956  .00007725  00000+0  37187-3 0  9992
2 19046  97.5083 324.6651 0026655 175.6369 184.5102 15.18729669 38783
SL-16 R/B               
1 19120U 88039B   25345.97188521 -.00000043  00000+0  24392-5 0  9993
2 19120  71.0151 254.0219 0019719 117.6269 242.6861 14.19596836945933
COSMOS 1953             
1 19210U 88050A   25345.65584958  .00008821  00000+0  33163-3 0  9990
2 19210  82.5088 246.6691 0013784  74.8356 285.4406 15.26918750 24342
SL-8 R/B                
1 19257U 88053B   25345.98645488  .00000435  00000+0  14956-3 0  9998
2 19257  74.0479 274.1077 0019011 118.5530 315.4112 14.38858510963985
COSMOS 1975             
1 19573U 88093A   25345.99426186  .00010363  00000+0  39541-3 0  9994
2 19573  82.5204 205.5753 0012810 114.7238 245.5336 15.26453000  6025
SL-14 R/B               
1 19574U 88093B   25345.90976432  .00000862  00000+0  96678-4 0  9998
2 19574  82.5303 124.4460 0020032 332.2810 143.8051 14.85547750988009
SL-16 R/B               
1 19650U 88102B   25345.96399589 -.00000027  00000+0  10421-4 0  9998
2 19650  70.9996 336.0754 0013006 153.2468 206.9329 14.16136250914475
INTERCOSMOS 24          
1 20261U 89080A   25345.94979968  .00001479  00000+0  42878-3 0  9998
2 20261  82.6043 161.4665 1188841 136.3518 233.8091 12.59437986655751
SL-14 R/B               
1 20262U 89080C   25345.38423376  .00000637  00000+0  18649-3 0  9998
2 20262  82.5930 229.8909 1230680  26.6852 339.2496 12.50412279649119
DELTA 1 R/B             
1 20323U 89089B   25346.01893621  .00000564  00000+0  14817-3 0  9992
2 20323  97.0752 202.3708 0070175  40.5453 320.0942 14.50571460883029
ARIANE 40 R/B           
1 20443U 90005H   25345.62731344  .00000509  00000+0  17574-3 0  9996
2 20443  98.3244  43.8365 0011245 108.8038 251.4371 14.39797503880136
